FLOCK 4Q-16             
1 58271U 23174R   26189.79896356  .00013542  00000+0  24149-3 0  9996
2 58271  97.3825 278.4220 0007032  95.2326 264.9728 15.50182074148928
FLOCK 4Q-11             
1 58273U 23174T   26189.77402292  .00021047  00000+0  36783-3 0  9994
2 58273  97.3859 279.0237 0006750  91.3160 268.8866 15.50660533148939
FLOCK 4Q-28             
1 58280U 23174AA  26189.78675503  .00025779  00000+0  36476-3 0  9995
2 58280  97.3878 281.7133 0005377  82.9863 277.2003 15.56483892149107
FLOCK 4Q-27             
1 58282U 23174AC  26189.78934098  .00023028  00000+0  32385-3 0  9994
2 58282  97.3807 281.1271 0004497  87.8503 272.3267 15.56676785149119
FLOCK 4Q-7              
1 58318U 23174BQ  26189.80911120  .00029655  00000+0  41053-3 0  9992
2 58318  97.3904 282.0540 0005166  66.5295 293.6503 15.57050195149113
FLOCK 4Q-2              
1 58320U 23174BS  26189.95229519  .00017479  00000+0  30634-3 0  9999
2 58320  97.3835 278.9226 0005408  70.5670 289.6166 15.50627468148974
FLOCK 4Q-9              
1 58322U 23174BU  26189.77745762  .00022218  00000+0  38223-3 0  9993
2 58322  97.3854 278.8473 0006250  72.8043 287.3893 15.51098541148938
FLOCK 4Q-4              
1 58327U 23174BZ  26189.78564107  .00018723  00000+0  33933-3 0  9990
2 58327  97.3820 277.9888 0006261  93.7913 266.4054 15.49653977148907
FLOCK 4Q-13             
1 58328U 23174CA  26189.52532639  .00018462  00000+0  30087-3 0  9995
2 58328  97.4002 280.9787 0006359  75.7774 284.4185 15.52656455148987
FLOCK 4BE-18            
1 60480U 24149N   26189.75223819  .00010003  00000+0  23195-3 0  9997
2 60480  97.3719 273.7169 0004673 162.9239 197.2167 15.42597903105636
FLOCK 4BE-7             
1 60481U 24149P   26189.78001330  .00018416  00000+0  44423-3 0  9996
2 60481  97.3753 273.0456 0003840 166.1793 193.9560 15.41262484105578
FLOCK 4BE-36            
1 60486U 24149U   26189.77694602  .00012409  00000+0  27967-3 0  9990
2 60486  97.3738 274.4730 0004291 170.3083 189.8249 15.43394438105683
FLOCK 4BE-25            
1 60487U 24149V   26189.47773070  .00009995  00000+0  25742-3 0  9990
2 60487  97.3789 272.7800 0003207 157.5408 202.5979 15.39414905105515
FLOCK 4BE-31            
1 60488U 24149W   26189.78738359  .00015529  00000+0  33133-3 0  9999
2 60488  97.3791 275.4056 0003256 166.9396 193.1937 15.44970580105719
FLOCK 4BE-20            
1 60489U 24149X   26189.77682075  .00010906  00000+0  28730-3 0  9993
2 60489  97.3689 271.9057 0004446 170.5146 189.6184 15.38690977105530
FLOCK 4BE-23            
1 60490U 24149Y   26189.77285200  .00011051  00000+0  29530-3 0  9995
2 60490  97.3774 272.2888 0004035 174.0594 186.0700 15.38250428105519
