{"fetched_at":"2026-07-09T18:16:44.960Z","source":"https://celestrak.org/NORAD/elements/gp.php?GROUP=planet&FORMAT=JSON","constellation":"superdove","records":[{"OBJECT_NAME":"FLOCK 4Q-16","OBJECT_ID":"2023-174R","EPOCH":"2026-07-08T19:10:30.451584","CLASSIFICATION_TYPE":"U","MEAN_MOTION":15.50182074,"ECCENTRICITY":0.00070321,"INCLINATION":97.3825,"RA_OF_ASC_NODE":278.422,"ARG_OF_PERICENTER":95.2326,"MEAN_ANOMALY":264.9728,"EPHEMERIS_TYPE":0,"NORAD_CAT_ID":58271,"ELEMENT_SET_NO":999,"REV_AT_EPOCH":14892,"BSTAR":0.00024149155,"MEAN_MOTION_DOT":0.00013542,"MEAN_MOTION_DDOT":0},{"OBJECT_NAME":"FLOCK 4Q-11","OBJECT_ID":"2023-174T","EPOCH":"2026-07-08T18:34:35.580288","CLASSIFICATION_TYPE":"U","MEAN_MOTION":15.50660533,"ECCENTRICITY":0.000675,"INCLINATION":97.3859,"RA_OF_ASC_NODE":279.0237,"ARG_OF_PERICENTER":91.316,"MEAN_ANOMALY":268.8866,"EPHEMERIS_TYPE":0,"NORAD_CAT_ID":58273,"ELEMENT_SET_NO":999,"REV_AT_EPOCH":14893,"BSTAR":0.0003678304,"MEAN_MOTION_DOT":0.00021047,"MEAN_MOTION_DDOT":0},{"OBJECT_NAME":"FLOCK 4Q-28","OBJECT_ID":"2023-174AA","EPOCH":"2026-07-08T18:52:55.634592","CLASSIFICATION_TYPE":"U","MEAN_MOTION":15.56483892,"ECCENTRICITY":0.00053772,"INCLINATION":97.3878,"RA_OF_ASC_NODE":281.7133,"ARG_OF_PERICENTER":82.9863,"MEAN_ANOMALY":277.2003,"EPHEMERIS_TYPE":0,"NORAD_CAT_ID":58280,"ELEMENT_SET_NO":999,"REV_AT_EPOCH":14910,"BSTAR":0.00036475776,"MEAN_MOTION_DOT":0.00025779,"MEAN_MOTION_DDOT":0},{"OBJECT_NAME":"FLOCK 4Q-27","OBJECT_ID":"2023-174AC","EPOCH":"2026-07-08T18:56:39.060672","CLASSIFICATION_TYPE":"U","MEAN_MOTION":15.56676785,"ECCENTRICITY":0.00044978,"INCLINATION":97.3807,"RA_OF_ASC_NODE":281.1271,"ARG_OF_PERICENTER":87.8503,"MEAN_ANOMALY":272.3267,"EPHEMERIS_TYPE":0,"NORAD_CAT_ID":58282,"ELEMENT_SET_NO":999,"REV_AT_EPOCH":14911,"BSTAR":0.00032385225,"MEAN_MOTION_DOT":0.00023028,"MEAN_MOTION_DDOT":0},{"OBJECT_NAME":"FLOCK 4Q-7","OBJECT_ID":"2023-174BQ","EPOCH":"2026-07-08T19:25:07.207680","CLASSIFICATION_TYPE":"U","MEAN_MOTION":15.57050195,"ECCENTRICITY":0.00051665,"INCLINATION":97.3904,"RA_OF_ASC_NODE":282.054,"ARG_OF_PERICENTER":66.5295,"MEAN_ANOMALY":293.6503,"EPHEMERIS_TYPE":0,"NORAD_CAT_ID":58318,"ELEMENT_SET_NO":999,"REV_AT_EPOCH":14911,"BSTAR":0.00041052598,"MEAN_MOTION_DOT":0.00029655,"MEAN_MOTION_DDOT":0},{"OBJECT_NAME":"FLOCK 4Q-2","OBJECT_ID":"2023-174BS","EPOCH":"2026-07-08T22:51:18.304416","CLASSIFICATION_TYPE":"U","MEAN_MOTION":15.50627468,"ECCENTRICITY":0.00054089,"INCLINATION":97.3835,"RA_OF_ASC_NODE":278.9226,"ARG_OF_PERICENTER":70.567,"MEAN_ANOMALY":289.6166,"EPHEMERIS_TYPE":0,"NORAD_CAT_ID":58320,"ELEMENT_SET_NO":999,"REV_AT_EPOCH":14897,"BSTAR":0.00030633797,"MEAN_MOTION_DOT":0.00017479,"MEAN_MOTION_DDOT":0},{"OBJECT_NAME":"FLOCK 4Q-9","OBJECT_ID":"2023-174BU","EPOCH":"2026-07-08T18:39:32.338368","CLASSIFICATION_TYPE":"U","MEAN_MOTION":15.51098541,"ECCENTRICITY":0.00062502,"INCLINATION":97.3854,"RA_OF_ASC_NODE":278.8473,"ARG_OF_PERICENTER":72.8043,"MEAN_ANOMALY":287.3893,"EPHEMERIS_TYPE":0,"NORAD_CAT_ID":58322,"ELEMENT_SET_NO":999,"REV_AT_EPOCH":14893,"BSTAR":0.00038222884,"MEAN_MOTION_DOT":0.00022218,"MEAN_MOTION_DDOT":0},{"OBJECT_NAME":"FLOCK 4Q-4","OBJECT_ID":"2023-174BZ","EPOCH":"2026-07-08T18:51:19.388448","CLASSIFICATION_TYPE":"U","MEAN_MOTION":15.49653977,"ECCENTRICITY":0.00062618,"INCLINATION":97.382,"RA_OF_ASC_NODE":277.9888,"ARG_OF_PERICENTER":93.7913,"MEAN_ANOMALY":266.4054,"EPHEMERIS_TYPE":0,"NORAD_CAT_ID":58327,"ELEMENT_SET_NO":999,"REV_AT_EPOCH":14890,"BSTAR":0.00033932745,"MEAN_MOTION_DOT":0.00018723,"MEAN_MOTION_DDOT":0},{"OBJECT_NAME":"FLOCK 4Q-13","OBJECT_ID":"2023-174CA","EPOCH":"2026-07-08T12:36:28.200096","CLASSIFICATION_TYPE":"U","MEAN_MOTION":15.52656455,"ECCENTRICITY":0.00063595,"INCLINATION":97.4002,"RA_OF_ASC_NODE":280.9787,"ARG_OF_PERICENTER":75.7774,"MEAN_ANOMALY":284.4185,"EPHEMERIS_TYPE":0,"NORAD_CAT_ID":58328,"ELEMENT_SET_NO":999,"REV_AT_EPOCH":14898,"BSTAR":0.00030087311,"MEAN_MOTION_DOT":0.00018462,"MEAN_MOTION_DDOT":0},{"OBJECT_NAME":"FLOCK 4BE-18","OBJECT_ID":"2024-149N","EPOCH":"2026-07-08T18:03:13.379616","CLASSIFICATION_TYPE":"U","MEAN_MOTION":15.42597903,"ECCENTRICITY":0.00046731,"INCLINATION":97.3719,"RA_OF_ASC_NODE":273.7169,"ARG_OF_PERICENTER":162.9239,"MEAN_ANOMALY":197.2167,"EPHEMERIS_TYPE":0,"NORAD_CAT_ID":60480,"ELEMENT_SET_NO":999,"REV_AT_EPOCH":10563,"BSTAR":0.00023194885,"MEAN_MOTION_DOT":0.00010003,"MEAN_MOTION_DDOT":0},{"OBJECT_NAME":"FLOCK 4BE-7","OBJECT_ID":"2024-149P","EPOCH":"2026-07-08T18:43:13.149120","CLASSIFICATION_TYPE":"U","MEAN_MOTION":15.41262484,"ECCENTRICITY":0.00038403,"INCLINATION":97.3753,"RA_OF_ASC_NODE":273.0456,"ARG_OF_PERICENTER":166.1793,"MEAN_ANOMALY":193.956,"EPHEMERIS_TYPE":0,"NORAD_CAT_ID":60481,"ELEMENT_SET_NO":999,"REV_AT_EPOCH":10557,"BSTAR":0.00044422698,"MEAN_MOTION_DOT":0.00018416,"MEAN_MOTION_DDOT":0},{"OBJECT_NAME":"FLOCK 4BE-36","OBJECT_ID":"2024-149U","EPOCH":"2026-07-08T18:38:48.136128","CLASSIFICATION_TYPE":"U","MEAN_MOTION":15.43394438,"ECCENTRICITY":0.00042911,"INCLINATION":97.3738,"RA_OF_ASC_NODE":274.473,"ARG_OF_PERICENTER":170.3083,"MEAN_ANOMALY":189.8249,"EPHEMERIS_TYPE":0,"NORAD_CAT_ID":60486,"ELEMENT_SET_NO":999,"REV_AT_EPOCH":10568,"BSTAR":0.00027967151,"MEAN_MOTION_DOT":0.00012409,"MEAN_MOTION_DDOT":0},{"OBJECT_NAME":"FLOCK 4BE-25","OBJECT_ID":"2024-149V","EPOCH":"2026-07-08T11:27:55.932480","CLASSIFICATION_TYPE":"U","MEAN_MOTION":15.39414905,"ECCENTRICITY":0.00032078,"INCLINATION":97.3789,"RA_OF_ASC_NODE":272.78,"ARG_OF_PERICENTER":157.5408,"MEAN_ANOMALY":202.5979,"EPHEMERIS_TYPE":0,"NORAD_CAT_ID":60487,"ELEMENT_SET_NO":999,"REV_AT_EPOCH":10551,"BSTAR":0.00025742283,"MEAN_MOTION_DOT":0.00009995,"MEAN_MOTION_DDOT":0},{"OBJECT_NAME":"FLOCK 4BE-31","OBJECT_ID":"2024-149W","EPOCH":"2026-07-08T18:53:49.942176","CLASSIFICATION_TYPE":"U","MEAN_MOTION":15.4497058,"ECCENTRICITY":0.00032561,"INCLINATION":97.3791,"RA_OF_ASC_NODE":275.4056,"ARG_OF_PERICENTER":166.9396,"MEAN_ANOMALY":193.1937,"EPHEMERIS_TYPE":0,"NORAD_CAT_ID":60488,"ELEMENT_SET_NO":999,"REV_AT_EPOCH":10571,"BSTAR":0.0003313329,"MEAN_MOTION_DOT":0.00015529,"MEAN_MOTION_DDOT":0},{"OBJECT_NAME":"FLOCK 4BE-20","OBJECT_ID":"2024-149X","EPOCH":"2026-07-08T18:38:37.312800","CLASSIFICATION_TYPE":"U","MEAN_MOTION":15.38690977,"ECCENTRICITY":0.00044467,"INCLINATION":97.3689,"RA_OF_ASC_NODE":271.9057,"ARG_OF_PERICENTER":170.5146,"MEAN_ANOMALY":189.6184,"EPHEMERIS_TYPE":0,"NORAD_CAT_ID":60489,"ELEMENT_SET_NO":999,"REV_AT_EPOCH":10553,"BSTAR":0.00028730485,"MEAN_MOTION_DOT":0.00010906,"MEAN_MOTION_DDOT":0},{"OBJECT_NAME":"FLOCK 4BE-23","OBJECT_ID":"2024-149Y","EPOCH":"2026-07-08T18:32:54.412800","CLASSIFICATION_TYPE":"U","MEAN_MOTION":15.38250428,"ECCENTRICITY":0.00040355,"INCLINATION":97.3774,"RA_OF_ASC_NODE":272.2888,"ARG_OF_PERICENTER":174.0594,"MEAN_ANOMALY":186.07,"EPHEMERIS_TYPE":0,"NORAD_CAT_ID":60490,"ELEMENT_SET_NO":999,"REV_AT_EPOCH":10551,"BSTAR":0.0002953015,"MEAN_MOTION_DOT":0.00011051,"MEAN_MOTION_DDOT":0}]}
